[{"OBJECT_NAME":"STARLINK-30542","OBJECT_ID":"2023-156P","EPOCH":"2026-03-09T06:05:56.933088","MEAN_MOTION":15.30194254,"ECCENTRICITY":0.00011503,"INCLINATION":53.1597,"RA_OF_ASC_NODE":80.2535,"ARG_OF_PERICENTER":85.0081,"MEAN_ANOMALY":275.1051,"EPHEMERIS_TYPE":0,"CLASSIFICATION_TYPE":"U","NORAD_CAT_ID":58041,"ELEMENT_SET_NO":999,"REV_AT_EPOCH":13624,"BSTAR":3.178222e-6,"MEAN_MOTION_DOT":-2.65e-6,"MEAN_MOTION_DDOT":0},{"OBJECT_NAME":"CZ-6A DEB","OBJECT_ID":"2024-140BH","EPOCH":"2026-03-09T12:42:23.031936","MEAN_MOTION":15.05550408,"ECCENTRICITY":0.0121353,"INCLINATION":89.148,"RA_OF_ASC_NODE":290.4372,"ARG_OF_PERICENTER":169.3672,"MEAN_ANOMALY":191.0177,"EPHEMERIS_TYPE":0,"CLASSIFICATION_TYPE":"U","NORAD_CAT_ID":60656,"ELEMENT_SET_NO":999,"REV_AT_EPOCH":8464,"BSTAR":0.002338,"MEAN_MOTION_DOT":0.00039913,"MEAN_MOTION_DDOT":0}]
